STARLINK-3528           
1 51714U 22016A   26058.14574863  .00000304  00000+0  37175-4 0  9991
2 51714  53.2189  16.4316 0001471  85.8740 274.2420 15.08841370221838
STARLINK-3533           
1 51715U 22016B   26058.27088229 -.00000358  00000+0 -43983-5 0  9998
2 51715  53.2184  15.9024 0001179  93.6927 266.4200 15.08832132222985
STARLINK-3543           
1 51716U 22016C   26058.27726139  .00001954  00000+0  14077-3 0  9999
2 51716  53.2184  15.8643 0001454  89.7085 270.4073 15.08854580221858
STARLINK-3445           
1 51717U 22016D   26058.28191985  .00000154  00000+0  27762-4 0  9993
2 51717  53.2183  15.9292 0001444  95.3662 264.7495 15.08843175221854
STARLINK-3546           
1 51718U 22016E   26058.24451935  .00023498  00000+0  12733-2 0  9990
2 51718  53.2146  13.7642 0000773 300.8136  59.2782 15.14511843223009
STARLINK-3540           
1 51719U 22016F   26058.14112235  .00001226  00000+0  95121-4 0  9996
2 51719  53.2192  16.5526 0001466  84.9559 275.1601 15.08845206221836
STARLINK-3526           
1 51720U 22016G   26058.25247027  .00001012  00000+0  81701-4 0  9990
2 51720  53.2194  15.9488 0001460 105.4381 254.6773 15.08836805221844
STARLINK-3524           
1 51721U 22016H   26058.26351209 -.00000564  00000+0 -17323-4 0  9992
2 51721  53.2194  15.9338 0001859 115.6939 244.4245 15.08851625221852
STARLINK-3535           
1 51722U 22016J   26058.24783636 -.00000072  00000+0  13569-4 0  9995
2 51722  53.2203  15.9961 0001506  98.7090 261.4072 15.08840135221844
STARLINK-3529           
1 51724U 22016L   26058.10799568  .00000049  00000+0  21168-4 0  9990
2 51724  53.2197  16.6239 0001463  92.0749 268.0411 15.08838364221823
STARLINK-3522           
1 51725U 22016M   26058.25151858  .00000272  00000+0  35202-4 0  9993
2 51725  53.2191  15.9785 0001338  90.3535 269.7610 15.08834241221842
STARLINK-3527           
1 51726U 22016N   26058.28187171  .00000187  00000+0  29819-4 0  9996
2 51726  53.2200   5.8434 0001505  96.1643 263.9521 15.08842059221992
STARLINK-3532           
1 51727U 22016P   26058.24415932 -.00000194  00000+0  59238-5 0  9990
2 51727  53.2186  16.0114 0001553  95.0366 265.0804 15.08836102221841
STARLINK-3523           
1 51729U 22016R   26058.21932915  .00000199  00000+0  30623-4 0  9994
2 51729  53.2185   6.1251 0001509  90.9102 269.2063 15.08833879221983
STARLINK-3514           
1 51731U 22016T   26058.27819402 -.00000012  00000+0  17336-4 0  9999
2 51731  53.2187   5.8595 0001350  91.1897 268.9250 15.08839128221991
STARLINK-3518           
1 51732U 22016U   26058.26346877  .00002242  00000+0  15893-3 0  9991
2 51732  53.2194   5.9263 0001538  82.7579 277.3588 15.08842438223138
STARLINK-3525           
1 51733U 22016V   26058.27179739 -.00002568  00000+0 -14338-3 0  9990
2 51733  53.2192   5.8977 0001165  89.1442 270.9684 15.08827930221992
STARLINK-3450           
1 51734U 22016W   26058.25243272  .00000526  00000+0  51155-4 0  9992
2 51734  53.2193   5.9738 0001512  87.0021 273.1144 15.08845433221989
STARLINK-3517           
1 51735U 22016X   26058.25978449 -.00001185  00000+0 -56368-4 0  9999
2 51735  53.2192   5.9425 0001438  86.0542 274.0615 15.08851810221996
STARLINK-3447           
1 51736U 22016Y   26058.25339755  .00001168  00000+0  91464-4 0  9996
2 51736  53.2194   6.0574 0001352  89.5702 270.5445 15.08848321221981
STARLINK-3509           
1 51737U 22016Z   26058.12363340  .00000507  00000+0  49958-4 0  9997
2 51737  53.2188   6.5535 0001399  88.9959 271.1194 15.08846106221960
STARLINK-3515           
1 51738U 22016AA  26058.17147556 -.00000074  00000+0  13449-4 0  9998
2 51738  53.2199   6.3379 0001477  90.5413 269.5749 15.08841331221971
STARLINK-3516           
1 51739U 22016AB  26058.24875629  .00000047  00000+0  21028-4 0  9997
2 51739  53.2199   5.9908 0001464  90.0574 270.0586 15.08839914221985
STARLINK-3500           
1 51740U 22016AC  26058.23037192 -.00001324  00000+0 -65145-4 0  9992
2 51740  53.2196   6.0691 0001260  68.8980 291.2147 15.08828155221986
STARLINK-3520           
1 51741U 22016AD  26058.24235214  .00000398  00000+0  43120-4 0  9996
2 51741  53.2200   6.0274 0001444  88.8834 271.2324 15.08843438221980
STARLINK-3521           
1 51742U 22016AE  26058.24509524  .00000974  00000+0  79232-4 0  9998
2 51742  53.2191   6.1988 0001325  87.7858 272.3286 15.08847322221980
STARLINK-3512           
1 51743U 22016AF  26058.24598544  .00000018  00000+0  19210-4 0  9998
2 51743  53.2189 355.9282 0001370  83.4168 276.6980 15.08839967222128
STARLINK-3452           
1 51744U 22016AG  26058.15676588 -.00000068  00000+0  13839-4 0  9991
2 51744  53.2190   6.4348 0001293  96.7616 263.3524 15.08825210221976
STARLINK-3449           
1 51745U 22016AH  26058.23402746 -.00003954  00000+0 -23031-3 0  9996
2 51745  53.2193   6.0554 0001677 105.5112 254.6066 15.08860321221988
STARLINK-3502           
1 51746U 22016AJ  26058.11815231 -.00000069  00000+0  13740-4 0  9991
2 51746  53.2189 356.5892 0001316  91.2133 268.9010 15.08841109222101
