OBJECT_NAME,OBJECT_ID,EPOCH,MEAN_MOTION,ECCENTRICITY,INCLINATION,RA_OF_ASC_NODE,ARG_OF_PERICENTER,MEAN_ANOMALY,EPHEMERIS_TYPE,CLASSIFICATION_TYPE,NORAD_CAT_ID,ELEMENT_SET_NO,REV_AT_EPOCH,BSTAR,MEAN_MOTION_DOT,MEAN_MOTION_DDOT
STARLINK-3528,2022-016A,2026-02-27T03:29:52.681632,15.08841370,.00014719,53.2189,16.4316,85.8740,274.2420,0,U,51714,999,22183,.37175164E-4,.304E-5,0
STARLINK-3533,2022-016B,2026-02-27T06:30:04.229856,15.08832132,.0001179,53.2184,15.9024,93.6927,266.4200,0,U,51715,999,22298,-.4398272E-5,-.358E-5,0
STARLINK-3543,2022-016C,2026-02-27T06:39:15.384096,15.08854580,.00014547,53.2184,15.8643,89.7085,270.4073,0,U,51716,999,22185,.14077397E-3,.1954E-4,0
STARLINK-3445,2022-016D,2026-02-27T06:45:57.875040,15.08843175,.00014446,53.2183,15.9292,95.3662,264.7495,0,U,51717,999,22185,.27762025E-4,.154E-5,0
STARLINK-3546,2022-016E,2026-02-27T05:52:06.471840,15.14511843,.00007735,53.2146,13.7642,300.8136,59.2782,0,U,51718,999,22300,.12732982E-2,.23498E-3,0
STARLINK-3540,2022-016F,2026-02-27T03:23:12.971040,15.08845206,.00014665,53.2192,16.5526,84.9559,275.1601,0,U,51719,999,22183,.9512133E-4,.1226E-4,0
STARLINK-3526,2022-016G,2026-02-27T06:03:33.431328,15.08836805,.00014605,53.2194,15.9488,105.4381,254.6773,0,U,51720,999,22184,.81700896E-4,.1012E-4,0
STARLINK-3524,2022-016H,2026-02-27T06:19:27.444576,15.08851625,.00018592,53.2194,15.9338,115.6939,244.4245,0,U,51721,999,22185,-.17322846E-4,-.564E-5,0
STARLINK-3535,2022-016J,2026-02-27T05:56:53.061504,15.08840135,.00015069,53.2203,15.9961,98.7090,261.4072,0,U,51722,999,22184,.13569425E-4,-.72E-6,0
STARLINK-3529,2022-016L,2026-02-27T02:35:30.826752,15.08838364,.00014632,53.2197,16.6239,92.0749,268.0411,0,U,51724,999,22182,.21168079E-4,.49E-6,0
STARLINK-3522,2022-016M,2026-02-27T06:02:11.205312,15.08834241,.00013387,53.2191,15.9785,90.3535,269.7610,0,U,51725,999,22184,.35201678E-4,.272E-5,0
STARLINK-3527,2022-016N,2026-02-27T06:45:53.715744,15.08842059,.00015057,53.2200,5.8434,96.1643,263.9521,0,U,51726,999,22199,.29818998E-4,.187E-5,0
STARLINK-3532,2022-016P,2026-02-27T05:51:35.365248,15.08836102,.00015533,53.2186,16.0114,95.0366,265.0804,0,U,51727,999,22184,.5923798E-5,-.194E-5,0
STARLINK-3523,2022-016R,2026-02-27T05:15:50.038560,15.08833879,.00015096,53.2185,6.1251,90.9102,269.2063,0,U,51729,999,22198,.30623408E-4,.199E-5,0
STARLINK-3514,2022-016T,2026-02-27T06:40:35.963328,15.08839128,.00013509,53.2187,5.8595,91.1897,268.9250,0,U,51731,999,22199,.17336413E-4,-.12E-6,0
STARLINK-3518,2022-016U,2026-02-27T06:19:23.701728,15.08842438,.00015383,53.2194,5.9263,82.7579,277.3588,0,U,51732,999,22313,.15893118E-3,.2242E-4,0
STARLINK-3525,2022-016V,2026-02-27T06:31:23.294496,15.08827930,.00011657,53.2192,5.8977,89.1442,270.9684,0,U,51733,999,22199,-.14337511E-3,-.2568E-4,0
STARLINK-3450,2022-016W,2026-02-27T06:03:30.187008,15.08845433,.00015122,53.2193,5.9738,87.0021,273.1144,0,U,51734,999,22198,.51154711E-4,.526E-5,0
STARLINK-3517,2022-016X,2026-02-27T06:14:05.379936,15.08851810,.00014383,53.2192,5.9425,86.0542,274.0615,0,U,51735,999,22199,-.56367918E-4,-.1185E-4,0
STARLINK-3447,2022-016Y,2026-02-27T06:04:53.548320,15.08848321,.00013523,53.2194,6.0574,89.5702,270.5445,0,U,51736,999,22198,.91464492E-4,.1168E-4,0
STARLINK-3509,2022-016Z,2026-02-27T02:58:01.925760,15.08846106,.00013999,53.2188,6.5535,88.9959,271.1194,0,U,51737,999,22196,.4995796E-4,.507E-5,0
STARLINK-3515,2022-016AA,2026-02-27T04:06:55.488384,15.08841331,.00014778,53.2199,6.3379,90.5413,269.5749,0,U,51738,999,22197,.13449449E-4,-.74E-6,0
STARLINK-3516,2022-016AB,2026-02-27T05:58:12.543456,15.08839914,.00014644,53.2199,5.9908,90.0574,270.0586,0,U,51739,999,22198,.21028036E-4,.47E-6,0
STARLINK-3500,2022-016AC,2026-02-27T05:31:44.133888,15.08828155,.00012603,53.2196,6.0691,68.8980,291.2147,0,U,51740,999,22198,-.65145118E-4,-.1324E-4,0
STARLINK-3520,2022-016AD,2026-02-27T05:48:59.224896,15.08843438,.00014449,53.2200,6.0274,88.8834,271.2324,0,U,51741,999,22198,.43120262E-4,.398E-5,0
STARLINK-3521,2022-016AE,2026-02-27T05:52:56.228736,15.08847322,.00013256,53.2191,6.1988,87.7858,272.3286,0,U,51742,999,22198,.79231608E-4,.974E-5,0
STARLINK-3512,2022-016AF,2026-02-27T05:54:13.142016,15.08839967,.00013705,53.2189,355.9282,83.4168,276.6980,0,U,51743,999,22212,.19210438E-4,.18E-6,0
STARLINK-3452,2022-016AG,2026-02-27T03:45:44.572032,15.08825210,.00012933,53.2190,6.4348,96.7616,263.3524,0,U,51744,999,22197,.1383855E-4,-.68E-6,0
STARLINK-3449,2022-016AH,2026-02-27T05:36:59.972544,15.08860321,.00016777,53.2193,6.0554,105.5112,254.6066,0,U,51745,999,22198,-.23030567E-3,-.3954E-4,0
STARLINK-3502,2022-016AJ,2026-02-27T02:50:08.359584,15.08841109,.00013167,53.2189,356.5892,91.2133,268.9010,0,U,51746,999,22210,.13740257E-4,-.69E-6,0
